[{"OBJECT_NAME":"STARLINK-5201","OBJECT_ID":"2022-136AB","EPOCH":"2026-03-09T23:20:50.883360","MEAN_MOTION":15.08822102,"ECCENTRICITY":0.0001319,"INCLINATION":53.2197,"RA_OF_ASC_NODE":343.0532,"ARG_OF_PERICENTER":93.0238,"MEAN_ANOMALY":267.0905,"EPHEMERIS_TYPE":0,"CLASSIFICATION_TYPE":"U","NORAD_CAT_ID":54076,"ELEMENT_SET_NO":999,"REV_AT_EPOCH":18688,"BSTAR":0.00023199069,"MEAN_MOTION_DOT":3.404e-5,"MEAN_MOTION_DDOT":0},{"OBJECT_NAME":"FENGYUN 1C DEB","OBJECT_ID":"1999-025CDD","EPOCH":"2026-03-09T11:33:45.810144","MEAN_MOTION":14.75920434,"ECCENTRICITY":0.01680026,"INCLINATION":98.2535,"RA_OF_ASC_NODE":159.595,"ARG_OF_PERICENTER":312.1312,"MEAN_ANOMALY":46.5721,"EPHEMERIS_TYPE":0,"CLASSIFICATION_TYPE":"U","NORAD_CAT_ID":31695,"ELEMENT_SET_NO":999,"REV_AT_EPOCH":67250,"BSTAR":0.0010431251,"MEAN_MOTION_DOT":8.978e-5,"MEAN_MOTION_DDOT":0}]
